[{"OBJECT_NAME":"STARLINK-6050","OBJECT_ID":"2023-064L","EPOCH":"2026-03-09T22:00:01.999584","MEAN_MOTION":14.98336516,"ECCENTRICITY":0.00036738,"INCLINATION":70.0009,"RA_OF_ASC_NODE":143.955,"ARG_OF_PERICENTER":268.0116,"MEAN_ANOMALY":260.892,"EPHEMERIS_TYPE":0,"CLASSIFICATION_TYPE":"U","NORAD_CAT_ID":56458,"ELEMENT_SET_NO":999,"REV_AT_EPOCH":575,"BSTAR":-0.0017137333,"MEAN_MOTION_DOT":-0.00020486,"MEAN_MOTION_DDOT":0},{"OBJECT_NAME":"SL-16 DEB","OBJECT_ID":"1992-093L","EPOCH":"2026-03-09T13:43:05.820096","MEAN_MOTION":14.92566733,"ECCENTRICITY":0.00224926,"INCLINATION":70.8231,"RA_OF_ASC_NODE":106.9008,"ARG_OF_PERICENTER":139.8913,"MEAN_ANOMALY":15.7142,"EPHEMERIS_TYPE":0,"CLASSIFICATION_TYPE":"U","NORAD_CAT_ID":22296,"ELEMENT_SET_NO":999,"REV_AT_EPOCH":72300,"BSTAR":0.0028358785,"MEAN_MOTION_DOT":0.00029386,"MEAN_MOTION_DDOT":0}]
